XRISM                   
1 57800U 23137A   24142.49635572  .00006274  00000+0  47405-3 0  9991
2 57800  31.0020 182.4809 0009598 302.4713  57.4994 15.00938941 38673
